HAWK-2B                 
1 47508U 21006CZ  26068.67629241  .00009474  00000+0  29651-3 0  9991
2 47508  97.2334 114.1140 0007102 185.9063 174.2098 15.33301353284246
STARLINK-34877          
1 65630U 25210J   26068.88731514  .00032895  00000+0  11172-2 0  9999
2 65630  53.1580 306.0005 0000664 109.9610 250.1462 15.30218042 27768
